{
    "links": {
        "self": "http://www.neowsapp.com/rest/v1/neo/3989238?api_key=iIulBulltgU6a56xZRHN4H3l9WmuAYTsLGpBGhQ2"
    },
    "id": "3989238",
    "neo_reference_id": "3989238",
    "name": "(2020 BJ10)",
    "designation": "2020 BJ10",
    "nasa_jpl_url": "http://ssd.jpl.nasa.gov/sbdb.cgi?sstr=3989238",
    "absolute_magnitude_h": 20.421,
    "estimated_diameter": {
        "kilometers": {
            "estimated_diameter_min": 0.2189550552,
            "estimated_diameter_max": 0.4895983875
        },
        "meters": {
            "estimated_diameter_min": 218.9550552201,
            "estimated_diameter_max": 489.5983874894
        },
        "miles": {
            "estimated_diameter_min": 0.1360523216,
            "estimated_diameter_max": 0.3042222396
        },
        "feet": {
            "estimated_diameter_min": 718.3565033683,
            "estimated_diameter_max": 1606.2939736107
        }
    },
    "is_potentially_hazardous_asteroid": false,
    "close_approach_data": [
        {
            "close_approach_date": "2019-12-17",
            "close_approach_date_full": "2019-Dec-17 01:17",
            "epoch_date_close_approach": 1576545420000,
            "relative_velocity": {
                "kilometers_per_second": "23.7712114895",
                "kilometers_per_hour": "85576.3613620772",
                "miles_per_hour": "53173.8229807863"
            },
            "miss_distance": {
                "astronomical": "0.2424280834",
                "lunar": "94.3045244426",
                "kilometers": "36266724.904822358",
                "miles": "22535097.8894822204"
            },
            "orbiting_body": "Earth"
        }
    ],
    "orbital_data": {
        "orbit_id": "1",
        "orbit_determination_date": "2020-01-27 21:12:13",
        "first_observation_date": "2020-01-25",
        "last_observation_date": "2020-01-28",
        "data_arc_in_days": 3,
        "observations_used": 25,
        "orbit_uncertainty": "9",
        "minimum_orbit_intersection": ".140137",
        "jupiter_tisserand_invariant": "3.510",
        "epoch_osculation": "2458874.5",
        "eccentricity": ".6564202431284293",
        "semi_major_axis": "2.015488049887112",
        "inclination": "8.75720037581595",
        "ascending_node_longitude": "165.8575707970208",
        "orbital_period": "1045.126279492822",
        "perihelion_distance": ".6924808941577701",
        "perihelion_argument": "192.3784343977231",
        "aphelion_distance": "3.338495205616454",
        "perihelion_time": "2458790.612985683283",
        "mean_anomaly": "28.89538398046333",
        "mean_motion": ".3444559830365194",
        "equinox": "J2000",
        "orbit_class": {
            "orbit_class_type": "APO",
            "orbit_class_description": "Near-Earth asteroid orbits which cross the Earth’s orbit similar to that of 1862 Apollo",
            "orbit_class_range": "a (semi-major axis) > 1.0 AU; q (perihelion) < 1.017 AU"
        }
    },
    "is_sentry_object": false
}